ONEWEB-0534             
1 55797U 23029B   26169.74479258  .00000079  00000+0  16350-3 0  9992
2 55797  87.9188 274.1590 0001852 100.7404 259.3938 13.20772740161354
ONEWEB-0556             
1 55798U 23029C   26169.75152179 -.00000021  00000+0 -83317-4 0  9991
2 55798  87.9185 274.1571 0001529  75.9580 284.1724 13.20773673161355
ONEWEB-0562             
1 55799U 23029D   26169.73805873 -.00000019  00000+0 -77856-4 0  9994
2 55799  87.9185 274.1405 0002230  77.6752 282.4631 13.20770753161356
ONEWEB-0563             
1 55800U 23029E   26169.73301352  .00000022  00000+0  23328-4 0  9997
2 55800  87.9184 274.1720 0001754 103.4553 256.6776 13.20772128161345
ONEWEB-0564             
1 55801U 23029F   26169.72628380  .00000020  00000+0  17229-4 0  9991
2 55801  87.9188 274.1467 0002127  89.9490 270.1887 13.20770784161352
ONEWEB-0638             
1 55802U 23029G   26169.76320058  .00000016  00000+0  99748-5 0  9999
2 55802  87.8956 289.4375 0001716  83.9480 276.1845 13.14504429159607
ONEWEB-0639             
1 55803U 23029H   26169.92733869  .00000022  00000+0  23481-4 0  9993
2 55803  87.9170 304.6291 0001383 129.8253 230.3002 13.19725390159134
ONEWEB-0640             
1 55804U 23029J   26169.77270512  .00000207  00000+0  52298-3 0  9990
2 55804  87.8955 289.4263 0001323  86.1299 273.9982 13.14503594159622
ONEWEB-0641             
1 55805U 23029K   26169.92259374 -.00000049  00000+0 -15441-3 0  9996
2 55805  87.9180 304.6193 0001793 103.9952 256.1381 13.19724908159143
ONEWEB-0642             
1 55806U 23029L   26169.91786200  .00000034  00000+0  53402-4 0  9991
2 55806  87.9172 304.6317 0001641 125.9706 234.1579 13.19725070159131
ONEWEB-0643             
1 55807U 23029M   26169.59034272 -.00000176  00000+0 -51042-3 0  9997
2 55807  87.8956 289.4497 0001969 121.2329 238.8994 13.14503683159572
ONEWEB-0644             
1 55808U 23029N   26169.91311816  .00000062  00000+0  12252-3 0  9998
2 55808  87.9170 304.6342 0001772 110.9983 249.1339 13.19724440159135
ONEWEB-0645             
1 55809U 23029P   26169.93523095  .00000067  00000+0  13415-3 0  9992
2 55809  87.9167 304.6271 0001434 102.9444 257.1849 13.19723886159139
ONEWEB-0646             
1 55810U 23029Q   26169.64934718  .00000029  00000+0  39121-4 0  9991
2 55810  87.9171 304.6840 0001798 108.3815 251.7513 13.19724968159087
ONEWEB-0648             
1 55811U 23029R   26169.78696912  .00000264  00000+0  67794-3 0  9995
2 55811  87.8971 289.3845 0001193 124.7115 235.4127 13.14501481159609
ONEWEB-0649             
1 55812U 23029S   26169.90205921  .00000053  00000+0  10036-3 0  9999
2 55812  87.9173 304.6312 0001598 102.4831 257.6481 13.19724940159153
ONEWEB-0650             
1 55813U 23029T   26169.89730848 -.00002306  00000+0 -57921-2 0  9997
2 55813  87.9162 304.6362 0001646 127.3293 232.7990 13.19737196159122
ONEWEB-0652             
1 55814U 23029U   26169.76793022 -.00000131  00000+0 -38731-3 0  9990
2 55814  87.8961 289.3956 0002082  99.2611 260.8754 13.14502582159576
ONEWEB-0653             
1 55815U 23029V   26169.59984439 -.00000048  00000+0 -16428-3 0  9992
2 55815  87.8966 289.4269 0001895  97.9724 262.1621 13.14503816159581
ONEWEB-0654             
1 55816U 23029W   26169.29061569 -.00000119  00000+0 -35609-3 0  9991
2 55816  87.8964 289.4848 0002109  92.2318 267.9053 13.14503994159566
ONEWEB-0656             
1 55817U 23029X   26169.71954058  .00000035  00000+0  55041-4 0  9991
2 55817  87.9202 274.1243 0002284  91.6295 268.5100 13.20772913161350
ONEWEB-0657             
1 55818U 23029Y   26169.89259198  .00000032  00000+0  46411-4 0  9992
2 55818  87.9172 304.6342 0002561 100.5002 259.6419 13.19725075159132
ONEWEB-0658             
1 55819U 23029Z   26169.88785233  .00000007  00000+0 -15364-4 0  9992
2 55819  87.9180 304.6110 0001745 111.6978 248.4341 13.19724250159148
ONEWEB-0660             
1 55820U 23029AA  26169.87736118  .00000047  00000+0  92047-4 0  9997
2 55820  87.8976 289.3609 0001558  99.0607 261.0699 13.14503575159624
ONEWEB-0661             
1 55821U 23029AB  26169.76002271 -.00000057  00000+0 -18863-3 0  9998
2 55821  87.8957 289.4293 0001641  96.0308 264.1009 13.14503061159597
ONEWEB-0662             
1 55822U 23029AC  26169.71879172  .00000072  00000+0  16104-3 0  9997
2 55822  87.8956 289.4432 0001583 100.4122 259.7186 13.14501955159632
ONEWEB-0663             
1 55823U 23029AD  26169.75308008  .00005945  00000+0  14550-1 0  9992
2 55823  87.9200 274.1848 0000928 155.0555 205.0623 13.20909847161357
ONEWEB-0664             
1 55824U 23029AE  26169.78183446  .00000067  00000+0  13337-3 0  9997
2 55824  87.9186 274.1648 0001772  87.6207 272.5129 13.20770406161358
ONEWEB-0665             
1 55825U 23029AF  26169.75684977 -.00000109  00000+0 -32785-3 0  9997
2 55825  87.8958 289.4103 0001552 102.7632 257.3671 13.14503577159612
ONEWEB-0666             
1 55826U 23029AG  26169.77509953  .00000094  00000+0  19892-3 0  9995
2 55826  87.9185 274.1557 0002686 103.0274 257.1160 13.20771364161369
