OBJECT_NAME,OBJECT_ID,EPOCH,MEAN_MOTION,ECCENTRICITY,INCLINATION,RA_OF_ASC_NODE,ARG_OF_PERICENTER,MEAN_ANOMALY,EPHEMERIS_TYPE,CLASSIFICATION_TYPE,NORAD_CAT_ID,ELEMENT_SET_NO,REV_AT_EPOCH,BSTAR,MEAN_MOTION_DOT,MEAN_MOTION_DDOT
ONEWEB-0534,2023-029B,2026-06-18T17:52:30.078912,13.20772740,.00018524,87.9188,274.1590,100.7404,259.3938,0,U,55797,999,16135,.16349781E-3,.79E-6,0
ONEWEB-0556,2023-029C,2026-06-18T18:02:11.482656,13.20773673,.00015296,87.9185,274.1571,75.9580,284.1724,0,U,55798,999,16135,-.83316846E-4,-.21E-6,0
ONEWEB-0562,2023-029D,2026-06-18T17:42:48.274272,13.20770753,.00022304,87.9185,274.1405,77.6752,282.4631,0,U,55799,999,16135,-.77855966E-4,-.19E-6,0
ONEWEB-0563,2023-029E,2026-06-18T17:35:32.368128,13.20772128,.0001754,87.9184,274.1720,103.4553,256.6776,0,U,55800,999,16134,.23328366E-4,.22E-6,0
ONEWEB-0564,2023-029F,2026-06-18T17:25:50.920320,13.20770784,.00021271,87.9188,274.1467,89.9490,270.1887,0,U,55801,999,16135,.17229167E-4,.2E-6,0
ONEWEB-0638,2023-029G,2026-06-18T18:19:00.530112,13.14504429,.0001716,87.8956,289.4375,83.9480,276.1845,0,U,55802,999,15960,.9974759E-5,.16E-6,0
ONEWEB-0639,2023-029H,2026-06-18T22:15:22.062816,13.19725390,.00013836,87.9170,304.6291,129.8253,230.3002,0,U,55803,999,15913,.23480701E-4,.22E-6,0
ONEWEB-0640,2023-029J,2026-06-18T18:32:41.722368,13.14503594,.00013232,87.8955,289.4263,86.1299,273.9982,0,U,55804,999,15962,.5229774E-3,.207E-5,0
ONEWEB-0641,2023-029K,2026-06-18T22:08:32.099136,13.19724908,.00017938,87.9180,304.6193,103.9952,256.1381,0,U,55805,999,15914,-.15441479E-3,-.49E-6,0
ONEWEB-0642,2023-029L,2026-06-18T22:01:43.276800,13.19725070,.00016417,87.9172,304.6317,125.9706,234.1579,0,U,55806,999,15913,.53402026E-4,.34E-6,0
ONEWEB-0643,2023-029M,2026-06-18T14:10:05.611008,13.14503683,.0001969,87.8956,289.4497,121.2329,238.8994,0,U,55807,999,15957,-.51042E-3,-.176E-5,0
ONEWEB-0644,2023-029N,2026-06-18T21:54:53.409024,13.19724440,.00017724,87.9170,304.6342,110.9983,249.1339,0,U,55808,999,15913,.12252466E-3,.62E-6,0
ONEWEB-0645,2023-029P,2026-06-18T22:26:43.954080,13.19723886,.00014346,87.9167,304.6271,102.9444,257.1849,0,U,55809,999,15913,.1341482E-3,.67E-6,0
ONEWEB-0646,2023-029Q,2026-06-18T15:35:03.596352,13.19724968,.00017989,87.9171,304.6840,108.3815,251.7513,0,U,55810,999,15908,.39121325E-4,.29E-6,0
ONEWEB-0648,2023-029R,2026-06-18T18:53:14.131968,13.14501481,.00011931,87.8971,289.3845,124.7115,235.4127,0,U,55811,999,15960,.67794316E-3,.264E-5,0
ONEWEB-0649,2023-029S,2026-06-18T21:38:57.915744,13.19724940,.00015989,87.9173,304.6312,102.4831,257.6481,0,U,55812,999,15915,.1003596E-3,.53E-6,0
ONEWEB-0650,2023-029T,2026-06-18T21:32:07.452672,13.19737196,.00016464,87.9162,304.6362,127.3293,232.7990,0,U,55813,999,15912,-.57920691E-2,-.2306E-4,0
ONEWEB-0652,2023-029U,2026-06-18T18:25:49.171008,13.14502582,.00020824,87.8961,289.3956,99.2611,260.8754,0,U,55814,999,15957,-.38731214E-3,-.131E-5,0
ONEWEB-0653,2023-029V,2026-06-18T14:23:46.555296,13.14503816,.0001895,87.8966,289.4269,97.9724,262.1621,0,U,55815,999,15958,-.16428E-3,-.48E-6,0
ONEWEB-0654,2023-029W,2026-06-18T06:58:29.195616,13.14503994,.0002109,87.8964,289.4848,92.2318,267.9053,0,U,55816,999,15956,-.35609E-3,-.119E-5,0
ONEWEB-0656,2023-029X,2026-06-18T17:16:08.306112,13.20772913,.00022849,87.9202,274.1243,91.6295,268.5100,0,U,55817,999,16135,.5504124E-4,.35E-6,0
ONEWEB-0657,2023-029Y,2026-06-18T21:25:19.947072,13.19725075,.00025612,87.9172,304.6342,100.5002,259.6419,0,U,55818,999,15913,.46411239E-4,.32E-6,0
ONEWEB-0658,2023-029Z,2026-06-18T21:18:30.441312,13.19724250,.00017454,87.9180,304.6110,111.6978,248.4341,0,U,55819,999,15914,-.15363625E-4,.7E-7,0
ONEWEB-0660,2023-029AA,2026-06-18T21:03:24.005952,13.14503575,.00015586,87.8976,289.3609,99.0607,261.0699,0,U,55820,999,15962,.92046514E-4,.47E-6,0
ONEWEB-0661,2023-029AB,2026-06-18T18:14:25.962144,13.14503061,.00016414,87.8957,289.4293,96.0308,264.1009,0,U,55821,999,15959,-.18862769E-3,-.57E-6,0
ONEWEB-0662,2023-029AC,2026-06-18T17:15:03.604608,13.14501955,.0001583,87.8956,289.4432,100.4122,259.7186,0,U,55822,999,15963,.16103556E-3,.72E-6,0
ONEWEB-0663,2023-029AD,2026-06-18T18:04:26.118912,13.20909847,.00009288,87.9200,274.1848,155.0555,205.0623,0,U,55823,999,16135,.1454965E-1,.5945E-4,0
ONEWEB-0664,2023-029AE,2026-06-18T18:45:50.497344,13.20770406,.00017728,87.9186,274.1648,87.6207,272.5129,0,U,55824,999,16135,.13337211E-3,.67E-6,0
ONEWEB-0665,2023-029AF,2026-06-18T18:09:51.820128,13.14503577,.00015529,87.8958,289.4103,102.7632,257.3671,0,U,55825,999,15961,-.32785206E-3,-.109E-5,0
ONEWEB-0666,2023-029AG,2026-06-18T18:36:08.599392,13.20771364,.00026863,87.9185,274.1557,103.0274,257.1160,0,U,55826,999,16136,.19891727E-3,.94E-6,0
